{"fetched_at":"2026-07-11T06:35:34.580Z","source":"https://celestrak.org/NORAD/elements/gp.php?NAME=KINEIS&FORMAT=JSON","constellation":"kineis","records":[{"OBJECT_NAME":"KINEIS-2D","OBJECT_ID":"2025-028C","EPOCH":"2026-07-10T02:32:21.126912","CLASSIFICATION_TYPE":"U","MEAN_MOTION":14.75759334,"ECCENTRICITY":0.00045931,"INCLINATION":97.9274,"RA_OF_ASC_NODE":243.1098,"ARG_OF_PERICENTER":120.6248,"MEAN_ANOMALY":239.5415,"EPHEMERIS_TYPE":0,"NORAD_CAT_ID":62930,"ELEMENT_SET_NO":999,"REV_AT_EPOCH":7609,"BSTAR":0.00015913409,"MEAN_MOTION_DOT":0.0000104,"MEAN_MOTION_DDOT":0},{"OBJECT_NAME":"KINEIS-2E","OBJECT_ID":"2025-028D","EPOCH":"2026-07-10T09:26:29.876640","CLASSIFICATION_TYPE":"U","MEAN_MOTION":14.77079754,"ECCENTRICITY":0.0002136,"INCLINATION":97.8943,"RA_OF_ASC_NODE":242.532,"ARG_OF_PERICENTER":98.9069,"MEAN_ANOMALY":261.2383,"EPHEMERIS_TYPE":0,"NORAD_CAT_ID":62931,"ELEMENT_SET_NO":999,"REV_AT_EPOCH":7620,"BSTAR":0.00013232321,"MEAN_MOTION_DOT":0.00000884,"MEAN_MOTION_DDOT":0},{"OBJECT_NAME":"KINEIS-2A","OBJECT_ID":"2025-028E","EPOCH":"2026-07-10T09:19:09.071616","CLASSIFICATION_TYPE":"U","MEAN_MOTION":14.73443341,"ECCENTRICITY":0.00060662,"INCLINATION":98.129,"RA_OF_ASC_NODE":246.8094,"ARG_OF_PERICENTER":95.2559,"MEAN_ANOMALY":264.9341,"EPHEMERIS_TYPE":0,"NORAD_CAT_ID":62932,"ELEMENT_SET_NO":999,"REV_AT_EPOCH":7602,"BSTAR":0.00013632509,"MEAN_MOTION_DOT":0.00000833,"MEAN_MOTION_DDOT":0},{"OBJECT_NAME":"KINEIS-2B","OBJECT_ID":"2025-028G","EPOCH":"2026-07-10T02:15:24.018336","CLASSIFICATION_TYPE":"U","MEAN_MOTION":14.73443626,"ECCENTRICITY":0.00049907,"INCLINATION":97.9656,"RA_OF_ASC_NODE":243.5396,"ARG_OF_PERICENTER":85.2642,"MEAN_ANOMALY":274.9136,"EPHEMERIS_TYPE":0,"NORAD_CAT_ID":62934,"ELEMENT_SET_NO":999,"REV_AT_EPOCH":7603,"BSTAR":0.00013390184,"MEAN_MOTION_DOT":0.00000819,"MEAN_MOTION_DDOT":0},{"OBJECT_NAME":"KINEIS-4E","OBJECT_ID":"2025-056A","EPOCH":"2026-07-10T19:58:06.971232","CLASSIFICATION_TYPE":"U","MEAN_MOTION":14.72295285,"ECCENTRICITY":0.0003043,"INCLINATION":97.9064,"RA_OF_ASC_NODE":315.0742,"ARG_OF_PERICENTER":93.0208,"MEAN_ANOMALY":267.1348,"EPHEMERIS_TYPE":0,"NORAD_CAT_ID":63300,"ELEMENT_SET_NO":999,"REV_AT_EPOCH":7060,"BSTAR":0.00014485,"MEAN_MOTION_DOT":0.00000867,"MEAN_MOTION_DDOT":0},{"OBJECT_NAME":"KINEIS-4C","OBJECT_ID":"2025-056B","EPOCH":"2026-07-10T20:16:02.101728","CLASSIFICATION_TYPE":"U","MEAN_MOTION":14.7231692,"ECCENTRICITY":0.0002473,"INCLINATION":97.9117,"RA_OF_ASC_NODE":315.3322,"ARG_OF_PERICENTER":229.8438,"MEAN_ANOMALY":130.2553,"EPHEMERIS_TYPE":0,"NORAD_CAT_ID":63301,"ELEMENT_SET_NO":999,"REV_AT_EPOCH":7061,"BSTAR":0.00014675,"MEAN_MOTION_DOT":0.00000879,"MEAN_MOTION_DDOT":0},{"OBJECT_NAME":"KINEIS-4D","OBJECT_ID":"2025-056C","EPOCH":"2026-07-10T20:20:58.394976","CLASSIFICATION_TYPE":"U","MEAN_MOTION":14.72419338,"ECCENTRICITY":0.0001206,"INCLINATION":97.9038,"RA_OF_ASC_NODE":315.3123,"ARG_OF_PERICENTER":239.1858,"MEAN_ANOMALY":120.9231,"EPHEMERIS_TYPE":0,"NORAD_CAT_ID":63302,"ELEMENT_SET_NO":999,"REV_AT_EPOCH":7061,"BSTAR":0.00014801,"MEAN_MOTION_DOT":0.0000089,"MEAN_MOTION_DDOT":0},{"OBJECT_NAME":"KINEIS-4A","OBJECT_ID":"2025-056D","EPOCH":"2026-07-10T19:33:37.860192","CLASSIFICATION_TYPE":"U","MEAN_MOTION":14.72326412,"ECCENTRICITY":0.000176,"INCLINATION":97.9132,"RA_OF_ASC_NODE":315.2273,"ARG_OF_PERICENTER":160.7964,"MEAN_ANOMALY":199.3311,"EPHEMERIS_TYPE":0,"NORAD_CAT_ID":63303,"ELEMENT_SET_NO":999,"REV_AT_EPOCH":7060,"BSTAR":0.00014544,"MEAN_MOTION_DOT":0.00000871,"MEAN_MOTION_DDOT":0},{"OBJECT_NAME":"KINEIS-4B","OBJECT_ID":"2025-056E","EPOCH":"2026-07-10T19:08:43.739808","CLASSIFICATION_TYPE":"U","MEAN_MOTION":14.72320844,"ECCENTRICITY":0.0004928,"INCLINATION":97.9144,"RA_OF_ASC_NODE":315.2672,"ARG_OF_PERICENTER":207.6668,"MEAN_ANOMALY":152.4278,"EPHEMERIS_TYPE":0,"NORAD_CAT_ID":63304,"ELEMENT_SET_NO":999,"REV_AT_EPOCH":7059,"BSTAR":0.00014532,"MEAN_MOTION_DOT":0.0000087,"MEAN_MOTION_DDOT":0}]}
