KINEIS-2D               
1 62930U 25028C   26191.10580008  .00001040  00000+0  15913-3 0  9994
2 62930  97.9274 243.1098 0004593 120.6248 239.5415 14.75759334 76090
KINEIS-2E               
1 62931U 25028D   26191.39340135  .00000884  00000+0  13232-3 0  9998
2 62931  97.8943 242.5320 0002136  98.9069 261.2383 14.77079754 76205
KINEIS-2A               
1 62932U 25028E   26191.38829944  .00000833  00000+0  13633-3 0  9997
2 62932  98.1290 246.8094 0006066  95.2559 264.9341 14.73443341 76027
KINEIS-2B               
1 62934U 25028G   26191.09402799  .00000819  00000+0  13390-3 0  9996
2 62934  97.9656 243.5396 0004990  85.2642 274.9136 14.73443626 76037
KINEIS-4E               
1 63300U 25056A   26191.83202513  .00000867  00000+0  14485-3 0  9998
2 63300  97.9064 315.0742 0003043  93.0208 267.1348 14.72295285 70602
KINEIS-4C               
1 63301U 25056B   26191.84446877  .00000879  00000+0  14675-3 0  9997
2 63301  97.9117 315.3322 0002473 229.8438 130.2553 14.72316920 70618
KINEIS-4D               
1 63302U 25056C   26191.84789809  .00000890  00000+0  14801-3 0  9997
2 63302  97.9038 315.3123 0001206 239.1858 120.9231 14.72419338 70619
KINEIS-4A               
1 63303U 25056D   26191.81502153  .00000871  00000+0  14544-3 0  9993
2 63303  97.9132 315.2273 0001760 160.7964 199.3311 14.72326412 70600
KINEIS-4B               
1 63304U 25056E   26191.79772847  .00000870  00000+0  14532-3 0  9996
2 63304  97.9144 315.2672 0004928 207.6668 152.4278 14.72320844 70591
